[{"OBJECT_NAME":"STARLINK-36324","OBJECT_ID":"2026-042Y","EPOCH":"2026-04-01T04:06:11.578176","MEAN_MOTION":15.75286151,"ECCENTRICITY":7.2e-5,"INCLINATION":53.1587,"RA_OF_ASC_NODE":82.4778,"ARG_OF_PERICENTER":104.6944,"MEAN_ANOMALY":255.4156,"EPHEMERIS_TYPE":0,"CLASSIFICATION_TYPE":"U","NORAD_CAT_ID":68091,"ELEMENT_SET_NO":999,"REV_AT_EPOCH":563,"BSTAR":0.0020512,"MEAN_MOTION_DOT":0.0032692,"MEAN_MOTION_DDOT":0},{"OBJECT_NAME":"STARLINK-36896","OBJECT_ID":"2026-042Z","EPOCH":"2026-04-01T03:52:38.928288","MEAN_MOTION":15.75231267,"ECCENTRICITY":0.000148,"INCLINATION":53.1584,"RA_OF_ASC_NODE":82.4151,"ARG_OF_PERICENTER":111.8802,"MEAN_ANOMALY":248.2376,"EPHEMERIS_TYPE":0,"CLASSIFICATION_TYPE":"U","NORAD_CAT_ID":68092,"ELEMENT_SET_NO":999,"REV_AT_EPOCH":562,"BSTAR":0.0017445,"MEAN_MOTION_DOT":0.00275581,"MEAN_MOTION_DDOT":0},{"OBJECT_NAME":"STARLINK-36251","OBJECT_ID":"2026-042AA","EPOCH":"2026-03-31T11:43:02.891424","MEAN_MOTION":15.80773442,"ECCENTRICITY":0.0002767,"INCLINATION":53.1569,"RA_OF_ASC_NODE":85.3098,"ARG_OF_PERICENTER":45.4029,"MEAN_ANOMALY":314.7219,"EPHEMERIS_TYPE":0,"CLASSIFICATION_TYPE":"U","NORAD_CAT_ID":68093,"ELEMENT_SET_NO":999,"REV_AT_EPOCH":552,"BSTAR":0.00090315,"MEAN_MOTION_DOT":0.00180515,"MEAN_MOTION_DDOT":0},{"OBJECT_NAME":"STARLINK-36787","OBJECT_ID":"2026-042AB","EPOCH":"2026-04-01T03:59:27.798144","MEAN_MOTION":15.75801738,"ECCENTRICITY":0.0001436,"INCLINATION":53.1585,"RA_OF_ASC_NODE":82.4463,"ARG_OF_PERICENTER":84.6543,"MEAN_ANOMALY":275.4641,"EPHEMERIS_TYPE":0,"CLASSIFICATION_TYPE":"U","NORAD_CAT_ID":68094,"ELEMENT_SET_NO":999,"REV_AT_EPOCH":562,"BSTAR":0.002368,"MEAN_MOTION_DOT":0.00388982,"MEAN_MOTION_DDOT":0},{"OBJECT_NAME":"STARLINK-36790","OBJECT_ID":"2026-042AC","EPOCH":"2026-04-01T03:33:30.589344","MEAN_MOTION":15.75341767,"ECCENTRICITY":7.57e-5,"INCLINATION":53.1583,"RA_OF_ASC_NODE":82.3259,"ARG_OF_PERICENTER":60.6408,"MEAN_ANOMALY":299.4688,"EPHEMERIS_TYPE":0,"CLASSIFICATION_TYPE":"U","NORAD_CAT_ID":68095,"ELEMENT_SET_NO":999,"REV_AT_EPOCH":562,"BSTAR":0.0018239,"MEAN_MOTION_DOT":0.00290052,"MEAN_MOTION_DDOT":0},{"OBJECT_NAME":"STARLINK-36328","OBJECT_ID":"2026-042AD","EPOCH":"2026-04-01T04:00:03.999744","MEAN_MOTION":15.75230764,"ECCENTRICITY":0.0001137,"INCLINATION":53.1588,"RA_OF_ASC_NODE":82.0754,"ARG_OF_PERICENTER":111.188,"MEAN_ANOMALY":70.8144,"EPHEMERIS_TYPE":0,"CLASSIFICATION_TYPE":"U","NORAD_CAT_ID":68096,"ELEMENT_SET_NO":999,"REV_AT_EPOCH":565,"BSTAR":9.1524e-5,"MEAN_MOTION_DOT":0.00013407,"MEAN_MOTION_DDOT":0},{"OBJECT_NAME":"STARLINK-36853","OBJECT_ID":"2026-042AE","EPOCH":"2026-04-01T04:00:03.999744","MEAN_MOTION":15.75286152,"ECCENTRICITY":0.0001376,"INCLINATION":53.1588,"RA_OF_ASC_NODE":82.0231,"ARG_OF_PERICENTER":106.0736,"MEAN_ANOMALY":101.6544,"EPHEMERIS_TYPE":0,"CLASSIFICATION_TYPE":"U","NORAD_CAT_ID":68097,"ELEMENT_SET_NO":999,"REV_AT_EPOCH":566,"BSTAR":-0.00059762,"MEAN_MOTION_DOT":-0.00091454,"MEAN_MOTION_DDOT":0},{"OBJECT_NAME":"GLOBAL-34","OBJECT_ID":"2026-043A","EPOCH":"2026-03-31T23:18:23.281920","MEAN_MOTION":15.31964864,"ECCENTRICITY":0.0003608,"INCLINATION":42.0212,"RA_OF_ASC_NODE":306.856,"ARG_OF_PERICENTER":86.3893,"MEAN_ANOMALY":273.7357,"EPHEMERIS_TYPE":0,"CLASSIFICATION_TYPE":"U","NORAD_CAT_ID":68098,"ELEMENT_SET_NO":999,"REV_AT_EPOCH":398,"BSTAR":0.00048527,"MEAN_MOTION_DOT":0.00015082,"MEAN_MOTION_DDOT":0},{"OBJECT_NAME":"STARLINK-37022","OBJECT_ID":"2026-044A","EPOCH":"2026-04-01T04:00:03.999744","MEAN_MOTION":15.594052,"ECCENTRICITY":0.0001475,"INCLINATION":97.2854,"RA_OF_ASC_NODE":52.3599,"ARG_OF_PERICENTER":95.653,"MEAN_ANOMALY":311.6093,"EPHEMERIS_TYPE":0,"CLASSIFICATION_TYPE":"U","NORAD_CAT_ID":68101,"ELEMENT_SET_NO":999,"REV_AT_EPOCH":501,"BSTAR":-0.027479,"MEAN_MOTION_DOT":-0.0191482,"MEAN_MOTION_DDOT":0},{"OBJECT_NAME":"STARLINK-37046","OBJECT_ID":"2026-044B","EPOCH":"2026-04-01T04:00:03.999744","MEAN_MOTION":15.59947381,"ECCENTRICITY":0.0001734,"INCLINATION":97.2851,"RA_OF_ASC_NODE":52.366,"ARG_OF_PERICENTER":89.3682,"MEAN_ANOMALY":331.1028,"EPHEMERIS_TYPE":0,"CLASSIFICATION_TYPE":"U","NORAD_CAT_ID":68102,"ELEMENT_SET_NO":999,"REV_AT_EPOCH":501,"BSTAR":-0.026908,"MEAN_MOTION_DOT":-0.01914581,"MEAN_MOTION_DDOT":0},{"OBJECT_NAME":"STARLINK-37018","OBJECT_ID":"2026-044C","EPOCH":"2026-04-01T04:00:03.999744","MEAN_MOTION":15.60208376,"ECCENTRICITY":0.0001716,"INCLINATION":97.2853,"RA_OF_ASC_NODE":52.3714,"ARG_OF_PERICENTER":90.6663,"MEAN_ANOMALY":341.0994,"EPHEMERIS_TYPE":0,"CLASSIFICATION_TYPE":"U","NORAD_CAT_ID":68103,"ELEMENT_SET_NO":999,"REV_AT_EPOCH":496,"BSTAR":-0.026726,"MEAN_MOTION_DOT":-0.01920058,"MEAN_MOTION_DDOT":0},{"OBJECT_NAME":"STARLINK-37041","OBJECT_ID":"2026-044D","EPOCH":"2026-04-01T04:00:03.999744","MEAN_MOTION":15.61058609,"ECCENTRICITY":0.0001766,"INCLINATION":97.2853,"RA_OF_ASC_NODE":52.3785,"ARG_OF_PERICENTER":91.0984,"MEAN_ANOMALY":357.2124,"EPHEMERIS_TYPE":0,"CLASSIFICATION_TYPE":"U","NORAD_CAT_ID":68104,"ELEMENT_SET_NO":999,"REV_AT_EPOCH":496,"BSTAR":-0.025903,"MEAN_MOTION_DOT":-0.01922669,"MEAN_MOTION_DDOT":0},{"OBJECT_NAME":"STARLINK-37021","OBJECT_ID":"2026-044E","EPOCH":"2026-04-01T04:00:03.999744","MEAN_MOTION":15.59146192,"ECCENTRICITY":0.0001678,"INCLINATION":97.285,"RA_OF_ASC_NODE":52.3702,"ARG_OF_PERICENTER":95.0889,"MEAN_ANOMALY":336.6434,"EPHEMERIS_TYPE":0,"CLASSIFICATION_TYPE":"U","NORAD_CAT_ID":68105,"ELEMENT_SET_NO":999,"REV_AT_EPOCH":496,"BSTAR":-0.027775,"MEAN_MOTION_DOT":-0.01916413,"MEAN_MOTION_DDOT":0},{"OBJECT_NAME":"STARLINK-37024","OBJECT_ID":"2026-044F","EPOCH":"2026-04-01T04:00:03.999744","MEAN_MOTION":15.61214525,"ECCENTRICITY":0.0001835,"INCLINATION":97.2851,"RA_OF_ASC_NODE":52.3847,"ARG_OF_PERICENTER":92.836,"MEAN_ANOMALY":11.3367,"EPHEMERIS_TYPE":0,"CLASSIFICATION_TYPE":"U","NORAD_CAT_ID":68106,"ELEMENT_SET_NO":999,"REV_AT_EPOCH":496,"BSTAR":-0.025735,"MEAN_MOTION_DOT":-0.01921878,"MEAN_MOTION_DDOT":0},{"OBJECT_NAME":"STARLINK-37005","OBJECT_ID":"2026-044G","EPOCH":"2026-04-01T04:00:03.999744","MEAN_MOTION":15.60458667,"ECCENTRICITY":0.0001747,"INCLINATION":97.2849,"RA_OF_ASC_NODE":52.3741,"ARG_OF_PERICENTER":91.3496,"MEAN_ANOMALY":347.5854,"EPHEMERIS_TYPE":0,"CLASSIFICATION_TYPE":"U","NORAD_CAT_ID":68107,"ELEMENT_SET_NO":999,"REV_AT_EPOCH":496,"BSTAR":-0.026477,"MEAN_MOTION_DOT":-0.01920535,"MEAN_MOTION_DDOT":0},{"OBJECT_NAME":"STARLINK-37017","OBJECT_ID":"2026-044H","EPOCH":"2026-04-01T04:00:03.999744","MEAN_MOTION":15.61873288,"ECCENTRICITY":0.0001663,"INCLINATION":97.2848,"RA_OF_ASC_NODE":52.3892,"ARG_OF_PERICENTER":100.7921,"MEAN_ANOMALY":13.0415,"EPHEMERIS_TYPE":0,"CLASSIFICATION_TYPE":"U","NORAD_CAT_ID":68108,"ELEMENT_SET_NO":999,"REV_AT_EPOCH":496,"BSTAR":-0.025115,"MEAN_MOTION_DOT":-0.0192385,"MEAN_MOTION_DDOT":0},{"OBJECT_NAME":"STARLINK-36833","OBJECT_ID":"2026-044J","EPOCH":"2026-04-01T04:00:03.999744","MEAN_MOTION":15.62314118,"ECCENTRICITY":0.0001811,"INCLINATION":97.2849,"RA_OF_ASC_NODE":52.3936,"ARG_OF_PERICENTER":100.7597,"MEAN_ANOMALY":25.9966,"EPHEMERIS_TYPE":0,"CLASSIFICATION_TYPE":"U","NORAD_CAT_ID":68109,"ELEMENT_SET_NO":999,"REV_AT_EPOCH":501,"BSTAR":-0.024706,"MEAN_MOTION_DOT":-0.01925286,"MEAN_MOTION_DDOT":0}]
