STARLINK-36324          
1 68091U 26042Y   26091.17096734  .00326920  00000+0  20512-2 0  9996
2 68091  53.1587  82.4778 0000720 104.6944 255.4156 15.75286151  5631
STARLINK-36896          
1 68092U 26042Z   26091.16156167  .00275581  00000+0  17445-2 0  9990
2 68092  53.1584  82.4151 0001480 111.8802 248.2376 15.75231267  5622
STARLINK-36251          
1 68093U 26042AA  26090.48822791  .00180515  00000+0  90315-3 0  9998
2 68093  53.1569  85.3098 0002767  45.4029 314.7219 15.80773442  5526
STARLINK-36787          
1 68094U 26042AB  26091.16629396  .00388982  00000+0  23680-2 0  9999
2 68094  53.1585  82.4463 0001436  84.6543 275.4641 15.75801738  5624
STARLINK-36790          
1 68095U 26042AC  26091.14827071  .00290052  00000+0  18239-2 0  9992
2 68095  53.1583  82.3259 0000757  60.6408 299.4688 15.75341767  5622
STARLINK-36328          
1 68096U 26042AD  26091.16671296  .00013407  00000+0  91524-4 0  9998
2 68096  53.1588  82.0754 0001137 111.1880  70.8144 15.75230764  5659
STARLINK-36853          
1 68097U 26042AE  26091.16671296 -.00091454  00000+0 -59762-3 0  9996
2 68097  53.1588  82.0231 0001376 106.0736 101.6544 15.75286152  5668
GLOBAL-34               
1 68098U 26043A   26090.97110280  .00015082  00000+0  48527-3 0  9995
2 68098  42.0212 306.8560 0003608  86.3893 273.7357 15.31964864  3987
STARLINK-37022          
1 68101U 26044A   26091.16671296 -.01914820  00000+0 -27479-1 0  9994
2 68101  97.2854  52.3599 0001475  95.6530 311.6093 15.59405200  5011
STARLINK-37046          
1 68102U 26044B   26091.16671296 -.01914581  00000+0 -26908-1 0  9995
2 68102  97.2851  52.3660 0001734  89.3682 331.1028 15.59947381  5010
STARLINK-37018          
1 68103U 26044C   26091.16671296 -.01920058  00000+0 -26726-1 0  9990
2 68103  97.2853  52.3714 0001716  90.6663 341.0994 15.60208376  4968
STARLINK-37041          
1 68104U 26044D   26091.16671296 -.01922669  00000+0 -25903-1 0  9997
2 68104  97.2853  52.3785 0001766  91.0984 357.2124 15.61058609  4960
STARLINK-37021          
1 68105U 26044E   26091.16671296 -.01916413  00000+0 -27775-1 0  9997
2 68105  97.2850  52.3702 0001678  95.0889 336.6434 15.59146192  4964
STARLINK-37024          
1 68106U 26044F   26091.16671296 -.01921878  00000+0 -25735-1 0  9993
2 68106  97.2851  52.3847 0001835  92.8360  11.3367 15.61214525  4961
STARLINK-37005          
1 68107U 26044G   26091.16671296 -.01920535  00000+0 -26477-1 0  9997
2 68107  97.2849  52.3741 0001747  91.3496 347.5854 15.60458667  4969
STARLINK-37017          
1 68108U 26044H   26091.16671296 -.01923850  00000+0 -25115-1 0  9999
2 68108  97.2848  52.3892 0001663 100.7921  13.0415 15.61873288  4960
STARLINK-36833          
1 68109U 26044J   26091.16671296 -.01925286  00000+0 -24706-1 0  9990
2 68109  97.2849  52.3936 0001811 100.7597  25.9966 15.62314118  5018
